{
  "php": [
    {
      "name": "REST API",
      "slug": "rest-api-examples",
      "version": "3.1.2",
      "link": "https://github.com/LyraNetwork/krypton-php-sdk",
      "zip": "",
      "brand": "payzen"
    },
    {
      "name": "Form Payment",
      "slug": "form-payment",
      "version": "",
      "link": "",
      "zip": "/files//integration/payment_form_payzen_1.0f.zip",
      "brand": "payzen"
    },
    {
      "name": "Form Payment SDK",
      "slug": "form-payment-sdk",
      "version": "0.2",
      "link": "https://github.com/payzen/vads-payment-php",
      "zip": "https://github.com/payzen/vads-payment-php/archive/master.zip",
      "brand": "payzen"
    },
    {
      "name": "Webservices ws-v5",
      "slug": "webservices-ws-v5",
      "version": "1.4",
      "link": "https://github.com/payzen/soap-v5-payment-exemple-php",
      "zip":
        "https://github.com/payzen/soap-v5-payment-exemple-php/archive/master.zip",
      "brand": "payzen"
    },
    {
      "name": "Webservices ws-v4",
      "slug": "webservices-ws-v4",
      "version": "",
      "link": "",
      "zip": "/files/integration/PayZen_pack_php_ws-v4.zip",
      "brand": "payzen"
    }
  ],
  "python": [
    {
      "name": "Form Payment",
      "slug": "form-payment-python",
      "version": "3.4",
      "link": "https://github.com/payzen/vads-payment-python",
      "zip": "https://github.com/payzen/vads-payment-python/archive/master.zip",
      "brand": "payzen"
    },
    {
      "name": "Webservices ws-v5",
      "slug": "webservices-ws-v5-python",
      "version": "1.4",
      "link": "https://github.com/payzen/ws-v5-createPayment-python",
      "zip":
        "https://github.com/payzen/ws-v5-createPayment-python/archive/master.zip",
      "brand": "payzen"
    }
  ],
  "java": [
    {
      "name": "Webservices v5 - SDK",
      "slug": "webservices-v5-sdk",
      "version": "1.0.6",
      "link": "https://github.com/payzen/payzen-webservices-v5-sdk-java",
      "zip":
        "https://github.com/payzen/payzen-webservices-v5-sdk-java/archive/master.zip",
      "brand": "payzen"
    },
    {
      "name": "Webservices v5",
      "slug": "webservices-v5-java",
      "version": "1.5",
      "link": "https://github.com/payzen/payzen-soapwebservice-java-example",
      "zip":
        "https://github.com/payzen/payzen-soapwebservice-java-example/archive/master.zip",
      "brand": "payzen"
    }
  ],
  "asp": [
    {
      "name": "Form Payment",
      "slug": "form-payment-asp",
      "version": "https://github.com/payzen/vads-payment-asp",
      "link": "",
      "zip": "https://github.com/payzen/vads-payment-asp/archive/master.zip",
      "brand": "payzen"
    }
  ]
}
